{
 "generated_at": "2026-07-04T07:46:40Z",
 "sources": [
  {
   "name": "CelesTrak",
   "url": "https://celestrak.org/NORAD/elements/",
   "license": "frei verfügbar; Attribution. Ursprünglich USSPACECOM/Space-Track."
  },
  {
   "name": "GCAT (J. McDowell, planet4589.org)",
   "url": "https://planet4589.org/space/gcat/",
   "license": "CC-BY 4.0"
  }
 ],
 "satellites": [
  {
   "norad": 39766,
   "name": "ALOS-2",
   "intl": "2014-029A",
   "group": "resource",
   "gcat": {
    "class": "C",
    "category": "IMG",
    "owner": "JAXA",
    "state": "J"
   },
   "omm": {
    "OBJECT_NAME": "ALOS-2",
    "OBJECT_ID": "2014-029A",
    "EPOCH": "2026-07-03T15:23:53.204064",
    "MEAN_MOTION": 14.79475228,
    "ECCENTRICITY": 0.00016482,
    "INCLINATION": 97.9233,
    "RA_OF_ASC_NODE": 281.5701,
    "ARG_OF_PERICENTER": 89.5622,
    "MEAN_ANOMALY": 270.5778,
    "EPHEMERIS_TYPE": 0,
    "CLASSIFICATION_TYPE": "U",
    "NORAD_CAT_ID": 39766,
    "ELEMENT_SET_NO": 999,
    "REV_AT_EPOCH": 65401,
    "BSTAR": 0.0002127317,
    "MEAN_MOTION_DOT": 0.00001538,
    "MEAN_MOTION_DDOT": 0
   }
  },
  {
   "norad": 60182,
   "name": "ALOS-4 (DAICHI-4)",
   "intl": "2024-123A",
   "group": "resource",
   "gcat": {
    "class": "C",
    "category": "IMG",
    "owner": "JAXA",
    "state": "J"
   },
   "omm": {
    "OBJECT_NAME": "ALOS-4 (DAICHI-4)",
    "OBJECT_ID": "2024-123A",
    "EPOCH": "2026-07-02T20:23:03.331104",
    "MEAN_MOTION": 14.79475621,
    "ECCENTRICITY": 0.00016106,
    "INCLINATION": 97.922,
    "RA_OF_ASC_NODE": 280.8007,
    "ARG_OF_PERICENTER": 97.4056,
    "MEAN_ANOMALY": 262.7339,
    "EPHEMERIS_TYPE": 0,
    "CLASSIFICATION_TYPE": "U",
    "NORAD_CAT_ID": 60182,
    "ELEMENT_SET_NO": 999,
    "REV_AT_EPOCH": 10819,
    "BSTAR": 0.00022752435,
    "MEAN_MOTION_DOT": 0.00001648,
    "MEAN_MOTION_DDOT": 0
   }
  },
  {
   "norad": 41785,
   "name": "ALSAT-1B",
   "intl": "2016-059C",
   "group": "resource",
   "gcat": {
    "class": "C",
    "category": "IMG",
    "owner": "ASAL",
    "state": "DZ"
   },
   "omm": {
    "OBJECT_NAME": "ALSAT-1B",
    "OBJECT_ID": "2016-059C",
    "EPOCH": "2026-07-03T14:51:47.055168",
    "MEAN_MOTION": 14.72287654,
    "ECCENTRICITY": 0.00094493,
    "INCLINATION": 97.7744,
    "RA_OF_ASC_NODE": 192.674,
    "ARG_OF_PERICENTER": 164.3329,
    "MEAN_ANOMALY": 195.8173,
    "EPHEMERIS_TYPE": 0,
    "CLASSIFICATION_TYPE": "U",
    "NORAD_CAT_ID": 41785,
    "ELEMENT_SET_NO": 999,
    "REV_AT_EPOCH": 52299,
    "BSTAR": 0.000083034475,
    "MEAN_MOTION_DOT": 0.00000478,
    "MEAN_MOTION_DDOT": 0
   }
  },
  {
   "norad": 27424,
   "name": "AQUA",
   "intl": "2002-022A",
   "group": "resource",
   "gcat": {
    "class": "C",
    "category": "IMG",
    "owner": "GSFC",
    "state": "US"
   },
   "omm": {
    "OBJECT_NAME": "AQUA",
    "OBJECT_ID": "2002-022A",
    "EPOCH": "2026-07-03T08:39:40.446720",
    "MEAN_MOTION": 14.62182845,
    "ECCENTRICITY": 0.00006948,
    "INCLINATION": 98.4286,
    "RA_OF_ASC_NODE": 153.9676,
    "ARG_OF_PERICENTER": 84.4551,
    "MEAN_ANOMALY": 81.4729,
    "EPHEMERIS_TYPE": 0,
    "CLASSIFICATION_TYPE": "U",
    "NORAD_CAT_ID": 27424,
    "ELEMENT_SET_NO": 999,
    "REV_AT_EPOCH": 28563,
    "BSTAR": 0.00017814596,
    "MEAN_MOTION_DOT": 0.00000847,
    "MEAN_MOTION_DDOT": 0
   }
  },
  {
   "norad": 29268,
   "name": "ARIRANG-2 (KOMPSAT-2)",
   "intl": "2006-031A",
   "group": "resource",
   "gcat": {
    "class": "C",
    "category": "IMG",
    "owner": "KARI",
    "state": "KR"
   },
   "omm": {
    "OBJECT_NAME": "ARIRANG-2 (KOMPSAT-2)",
    "OBJECT_ID": "2006-031A",
    "EPOCH": "2026-07-03T16:33:08.256096",
    "MEAN_MOTION": 14.64669925,
    "ECCENTRICITY": 0.00152354,
    "INCLINATION": 97.8305,
    "RA_OF_ASC_NODE": 8.3374,
    "ARG_OF_PERICENTER": 26.4309,
    "MEAN_ANOMALY": 39.7669,
    "EPHEMERIS_TYPE": 0,
    "CLASSIFICATION_TYPE": "U",
    "NORAD_CAT_ID": 29268,
    "ELEMENT_SET_NO": 999,
    "REV_AT_EPOCH": 6389,
    "BSTAR": 0.000059291558,
    "MEAN_MOTION_DOT": 0.00000271,
    "MEAN_MOTION_DDOT": 0
   }
  },
  {
   "norad": 38338,
   "name": "ARIRANG-3 (KOMPSAT-3)",
   "intl": "2012-025B",
   "group": "resource",
   "gcat": {
    "class": "C",
    "category": "IMG",
    "owner": "KARI",
    "state": "KR"
   },
   "omm": {
    "OBJECT_NAME": "ARIRANG-3 (KOMPSAT-3)",
    "OBJECT_ID": "2012-025B",
    "EPOCH": "2026-07-03T15:52:13.230336",
    "MEAN_MOTION": 14.62221204,
    "ECCENTRICITY": 0.0006729,
    "INCLINATION": 98.1179,
    "RA_OF_ASC_NODE": 141.8376,
    "ARG_OF_PERICENTER": 68.3287,
    "MEAN_ANOMALY": 291.8631,
    "EPHEMERIS_TYPE": 0,
    "CLASSIFICATION_TYPE": "U",
    "NORAD_CAT_ID": 38338,
    "ELEMENT_SET_NO": 999,
    "REV_AT_EPOCH": 75375,
    "BSTAR": 0.00011408427,
    "MEAN_MOTION_DOT": 0.00000528,
    "MEAN_MOTION_DDOT": 0
   }
  },
  {
   "norad": 39227,
   "name": "ARIRANG-5 (KOMPSAT-5)",
   "intl": "2013-042A",
   "group": "resource",
   "gcat": {
    "class": "C",
    "category": "IMG-R",
    "owner": "KARI",
    "state": "KR"
   },
   "omm": {
    "OBJECT_NAME": "ARIRANG-5 (KOMPSAT-5)",
    "OBJECT_ID": "2013-042A",
    "EPOCH": "2026-07-03T15:50:40.479072",
    "MEAN_MOTION": 15.04547405,
    "ECCENTRICITY": 0.0005225,
    "INCLINATION": 97.6203,
    "RA_OF_ASC_NODE": 11.1276,
    "ARG_OF_PERICENTER": 82.9201,
    "MEAN_ANOMALY": 277.2619,
    "EPHEMERIS_TYPE": 0,
    "CLASSIFICATION_TYPE": "U",
    "NORAD_CAT_ID": 39227,
    "ELEMENT_SET_NO": 999,
    "REV_AT_EPOCH": 70633,
    "BSTAR": 0.00016127669,
    "MEAN_MOTION_DOT": 0.000022,
    "MEAN_MOTION_DDOT": 0
   }
  },
  {
   "norad": 47719,
   "name": "ARKTIKA-M 1",
   "intl": "2021-016A",
   "group": "weather",
   "gcat": {
    "class": "C",
    "category": "MET",
    "owner": "ROSK",
    "state": "RU"
   },
   "omm": {
    "OBJECT_NAME": "ARKTIKA-M 1",
    "OBJECT_ID": "2021-016A",
    "EPOCH": "2026-06-29T22:50:46.732128",
    "MEAN_MOTION": 2.00617895,
    "ECCENTRICITY": 0.72928178,
    "INCLINATION": 63.252,
    "RA_OF_ASC_NODE": 55.7907,
    "ARG_OF_PERICENTER": 269.991,
    "MEAN_ANOMALY": 14.5481,
    "EPHEMERIS_TYPE": 0,
    "CLASSIFICATION_TYPE": "U",
    "NORAD_CAT_ID": 47719,
    "ELEMENT_SET_NO": 999,
    "REV_AT_EPOCH": 3904,
    "BSTAR": 0,
    "MEAN_MOTION_DOT": -0.00000281,
    "MEAN_MOTION_DDOT": 0
   }
  },
  {
   "norad": 58584,
   "name": "ARKTIKA-M 2",
   "intl": "2023-198A",
   "group": "weather",
   "gcat": {
    "class": "C",
    "category": "MET",
    "owner": "ROSK",
    "state": "RU"
   },
   "omm": {
    "OBJECT_NAME": "ARKTIKA-M 2",
    "OBJECT_ID": "2023-198A",
    "EPOCH": "2026-06-29T17:20:14.637696",
    "MEAN_MOTION": 2.00610643,
    "ECCENTRICITY": 0.69058771,
    "INCLINATION": 63.2199,
    "RA_OF_ASC_NODE": 152.9641,
    "ARG_OF_PERICENTER": 267.3845,
    "MEAN_ANOMALY": 18.7575,
    "EPHEMERIS_TYPE": 0,
    "CLASSIFICATION_TYPE": "U",
    "NORAD_CAT_ID": 58584,
    "ELEMENT_SET_NO": 999,
    "REV_AT_EPOCH": 1857,
    "BSTAR": 0,
    "MEAN_MOTION_DOT": 0.00000148,
    "MEAN_MOTION_DDOT": 0
   }
  },
  {
   "norad": 40298,
   "name": "ASNARO",
   "intl": "2014-070A",
   "group": "resource",
   "gcat": {
    "class": null,
    "category": "IMG",
    "owner": "JSS",
    "state": "J"
   },
   "omm": {
    "OBJECT_NAME": "ASNARO",
    "OBJECT_ID": "2014-070A",
    "EPOCH": "2026-07-03T16:30:36.251712",
    "MEAN_MOTION": 15.19685983,
    "ECCENTRICITY": 0.00065985,
    "INCLINATION": 97.3445,
    "RA_OF_ASC_NODE": 260.3582,
    "ARG_OF_PERICENTER": 117.8043,
    "MEAN_ANOMALY": 242.3862,
    "EPHEMERIS_TYPE": 0,
    "CLASSIFICATION_TYPE": "U",
    "NORAD_CAT_ID": 40298,
    "ELEMENT_SET_NO": 999,
    "REV_AT_EPOCH": 64651,
    "BSTAR": 0.00048966919,
    "MEAN_MOTION_DOT": 0.00010397,
    "MEAN_MOTION_DDOT": 0
   }
  }
 ]
}
