AQUA                    
1 27424U 02022A   26184.36088480  .00000847  00000+0  17815-3 0  9996
2 27424  98.4286 153.9676 0000694  84.4551  81.4729 14.62182845285637
ARIRANG-2 (KOMPSAT-2)   
1 29268U 06031A   26184.68967889  .00000271  00000+0  59292-4 0  9999
2 29268  97.8305   8.3374 0015235  26.4309  39.7669 14.64669925 63894
ARIRANG-3 (KOMPSAT-3)   
1 38338U 12025B   26184.66126424  .00000528  00000+0  11408-3 0  9998
2 38338  98.1179 141.8376 0006729  68.3287 291.8631 14.62221204753751
ARIRANG-5 (KOMPSAT-5)   
1 39227U 13042A   26184.66019073  .00002200  00000+0  16128-3 0  9990
2 39227  97.6203  11.1276 0005225  82.9201 277.2619 15.04547405706334
ALOS-2                  
1 39766U 14029A   26184.64158801  .00001538  00000+0  21273-3 0  9995
2 39766  97.9233 281.5701 0001648  89.5622 270.5778 14.79475228654012
ASNARO                  
1 40298U 14070A   26184.68791958  .00010397  00000+0  48967-3 0  9995
2 40298  97.3445 260.3582 0006598 117.8043 242.3862 15.19685983646519
ALSAT-1B                
1 41785U 16059C   26184.61929462  .00000478  00000+0  83034-4 0  9996
2 41785  97.7744 192.6740 0009449 164.3329 195.8173 14.72287654522995
ARKTIKA-M 1             
1 47719U 21016A   26180.95192977 -.00000281  00000+0  00000+0 0  9994
2 47719  63.2520  55.7907 7292817 269.9910  14.5481  2.00617895 39040
ARKTIKA-M 2             
1 58584U 23198A   26180.72239164  .00000148  00000+0  00000+0 0  9995
2 58584  63.2199 152.9641 6905877 267.3845  18.7575  2.00610643 18573
ALOS-4 (DAICHI-4)       
1 60182U 24123A   26183.84934411  .00001648  00000+0  22752-3 0  9992
2 60182  97.9220 280.8007 0001610  97.4056 262.7339 14.79475621108199
